QIANFAN-17              
1 60395U 24140S   25293.62945523  .00000065  00000+0  81616-4 0  9997
2 60395  88.9749 304.9371 0015096   7.4648 352.6725 13.50970115 60960
QIANFAN-18              
1 60396U 24140T   25293.60886670  .00000064  00000+0  79952-4 0  9992
2 60396  88.9741 304.4766 0013798 350.5060   9.5828 13.50975176 60350
QIANFAN-19              
1 61552U 24185A   25293.66131356  .00000926  00000+0  47807-3 0  9996
2 61552  88.9775  84.0181 0008957 110.7095 249.5053 14.14209378 62161
QIANFAN-20              
1 61553U 24185B   25293.63061186  .00000966  00000+0  55233-3 0  9993
2 61553  88.9773  84.2920 0006902 140.8159 219.3526 14.08759528 62010
QIANFAN-21              
1 61554U 24185C   25293.64312338  .00001249  00000+0  55364-3 0  9993
2 61554  88.9692  83.1931 0011137 165.5979 194.5533 14.22493180 62423
QIANFAN-22              
1 61555U 24185D   25293.66568749  .00000294  00000+0  24324-3 0  9996
2 61555  88.9758  85.0564 0007710 144.7127 215.4556 13.86274210 61580
QIANFAN-23              
1 61556U 24185E   25293.64087071  .00001188  00000+0  59318-3 0  9993
2 61556  88.9769  83.8550 0009625 120.6488 239.5651 14.16206652 62239
QIANFAN-24              
1 61557U 24185F   25293.62042164  .00001396  00000+0  60538-3 0  9993
2 61557  88.9750  83.3492 0011631 108.4644 251.7814 14.23701713 62466
